NETSAT-3                
1 46505U 20068V   26095.22862883  .00023674  00000+0  58997-3 0  9999
2 46505  97.8681  96.0584 0004014 218.9146 141.1810 15.40228598304448
NETSAT-1                
1 46506U 20068W   26094.93419451  .00016946  00000+0  53501-3 0  9996
2 46506  97.8755  90.8995 0003179 257.6328 102.4557 15.32917538304079
NETSAT-2                
1 46507U 20068X   26094.95159525  .00025517  00000+0  58040-3 0  9999
2 46507  97.8653  97.1099 0002118 229.5311 130.5751 15.42976516304434
GREENCUBE (IO-117)      
1 53109U 22080E   26094.56827725 -.00000003  00000+0  00000+0 0  9995
2 53109  70.1528 323.8593 0009014 305.8170  54.1652  6.42583190 87336
SITRO-AIS 5 (KATYS)     
1 57176U 23091L   26095.27756698  .00015829  00000+0  58301-3 0  9997
2 57176  97.5121 158.5529 0011447   7.9718 352.1701 15.27860863153203
SITRO-AIS 6 (CHIRKIN)   
1 57192U 23091AC  26095.22941917  .00008797  00000+0  35627-3 0  9992
2 57192  97.5129 157.9871 0012237  11.7542 348.3979 15.24847065153163
SITRO-AIS 8 (ANOKHIN)   
1 57193U 23091AD  26095.28448554  .00017168  00000+0  58748-3 0  9999
2 57193  97.5115 159.8696 0010485   4.9980 355.1363 15.30261755153298
SITRO-AIS 7 (FARTUSHNIY)
1 57194U 23091AE  26095.28417128  .00008554  00000+0  34937-3 0  9996
2 57194  97.5127 157.9020 0012155  12.2878 347.8653 15.24572247153166
SITRO-AIS 10 (BURDAEV)  
1 57199U 23091AK  26095.27878632  .00026260  00000+0  74970-3 0  9996
2 57199  97.5131 164.2142 0005969 342.9572  17.1470 15.35990170153560
SITRO-AIS 9 (SHCHUKIN)  
1 57201U 23091AM  26095.28377337  .00024449  00000+0  70768-3 0  9995
2 57201  97.5129 164.0020 0006209 343.1516  16.9520 15.35571001153553
SITRO-AIS 12 (SMIRENNIY)
1 57204U 23091AQ  26095.28771236  .00025243  00000+0  72438-3 0  9993
2 57204  97.5140 164.4292 0005744 336.7310  23.3673 15.35837518153578
SITRO-AIS 11 (SHEFFER)  
1 57208U 23091AU  26095.18958568  .00025775  00000+0  73091-3 0  9997
2 57208  97.5139 164.5332 0005627 336.5291  23.5695 15.36206833153579
SITRO-AIS 25            
1 59066U 24039R   26095.26548500  .00008253  00000+0  65055-3 0  9997
2 59066  95.3928 184.9983 0144866 222.3132 136.6847 14.92906477113841
SITRO-AIS 26            
1 59067U 24039S   26095.25723840  .00008009  00000+0  63419-3 0  9990
2 59067  95.3925 184.9046 0145194 222.8645 136.1190 14.92712893113830
SITRO-AIS 27            
1 59068U 24039T   26095.24751067  .00007823  00000+0  61416-3 0  9990
2 59068  95.3924 185.1368 0144424 221.6890 137.3259 14.93113121113855
SITRO-AIS 28            
1 59071U 24039U   26095.29366271  .00006653  00000+0  52244-3 0  9997
2 59071  95.3929 185.2122 0144317 221.4140 137.6076 14.93150437113862
