[{"OBJECT_NAME":"NETSAT-3","OBJECT_ID":"2020-068V","EPOCH":"2026-04-05T05:29:13.530912","MEAN_MOTION":15.40228598,"ECCENTRICITY":0.00040149,"INCLINATION":97.8681,"RA_OF_ASC_NODE":96.0584,"ARG_OF_PERICENTER":218.9146,"MEAN_ANOMALY":141.181,"EPHEMERIS_TYPE":0,"CLASSIFICATION_TYPE":"U","NORAD_CAT_ID":46505,"ELEMENT_SET_NO":999,"REV_AT_EPOCH":30444,"BSTAR":0.0005899704,"MEAN_MOTION_DOT":0.00023674,"MEAN_MOTION_DDOT":0},{"OBJECT_NAME":"NETSAT-1","OBJECT_ID":"2020-068W","EPOCH":"2026-04-04T22:25:14.405664","MEAN_MOTION":15.32917538,"ECCENTRICITY":0.00031792,"INCLINATION":97.8755,"RA_OF_ASC_NODE":90.8995,"ARG_OF_PERICENTER":257.6328,"MEAN_ANOMALY":102.4557,"EPHEMERIS_TYPE":0,"CLASSIFICATION_TYPE":"U","NORAD_CAT_ID":46506,"ELEMENT_SET_NO":999,"REV_AT_EPOCH":30407,"BSTAR":0.00053501102,"MEAN_MOTION_DOT":0.00016946,"MEAN_MOTION_DDOT":0},{"OBJECT_NAME":"NETSAT-2","OBJECT_ID":"2020-068X","EPOCH":"2026-04-04T22:50:17.829600","MEAN_MOTION":15.42976516,"ECCENTRICITY":0.00021184,"INCLINATION":97.8653,"RA_OF_ASC_NODE":97.1099,"ARG_OF_PERICENTER":229.5311,"MEAN_ANOMALY":130.5751,"EPHEMERIS_TYPE":0,"CLASSIFICATION_TYPE":"U","NORAD_CAT_ID":46507,"ELEMENT_SET_NO":999,"REV_AT_EPOCH":30443,"BSTAR":0.00058040246,"MEAN_MOTION_DOT":0.00025517,"MEAN_MOTION_DDOT":0},{"OBJECT_NAME":"GREENCUBE (IO-117)","OBJECT_ID":"2022-080E","EPOCH":"2026-04-04T13:38:19.154400","MEAN_MOTION":6.4258319,"ECCENTRICITY":0.0009014,"INCLINATION":70.1528,"RA_OF_ASC_NODE":323.8593,"ARG_OF_PERICENTER":305.817,"MEAN_ANOMALY":54.1652,"EPHEMERIS_TYPE":0,"CLASSIFICATION_TYPE":"U","NORAD_CAT_ID":53109,"ELEMENT_SET_NO":999,"REV_AT_EPOCH":8733,"BSTAR":0,"MEAN_MOTION_DOT":-3.0e-8,"MEAN_MOTION_DDOT":0},{"OBJECT_NAME":"SITRO-AIS 5 (KATYS)","OBJECT_ID":"2023-091L","EPOCH":"2026-04-05T06:39:41.787072","MEAN_MOTION":15.27860863,"ECCENTRICITY":0.0011447,"INCLINATION":97.5121,"RA_OF_ASC_NODE":158.5529,"ARG_OF_PERICENTER":7.9718,"MEAN_ANOMALY":352.1701,"EPHEMERIS_TYPE":0,"CLASSIFICATION_TYPE":"U","NORAD_CAT_ID":57176,"ELEMENT_SET_NO":999,"REV_AT_EPOCH":15320,"BSTAR":0.00058301028,"MEAN_MOTION_DOT":0.00015829,"MEAN_MOTION_DDOT":0},{"OBJECT_NAME":"SITRO-AIS 6 (CHIRKIN)","OBJECT_ID":"2023-091AC","EPOCH":"2026-04-05T05:30:21.816288","MEAN_MOTION":15.24847065,"ECCENTRICITY":0.00122372,"INCLINATION":97.5129,"RA_OF_ASC_NODE":157.9871,"ARG_OF_PERICENTER":11.7542,"MEAN_ANOMALY":348.3979,"EPHEMERIS_TYPE":0,"CLASSIFICATION_TYPE":"U","NORAD_CAT_ID":57192,"ELEMENT_SET_NO":999,"REV_AT_EPOCH":15316,"BSTAR":0.00035626652,"MEAN_MOTION_DOT":8.797e-5,"MEAN_MOTION_DDOT":0},{"OBJECT_NAME":"SITRO-AIS 8 (ANOKHIN)","OBJECT_ID":"2023-091AD","EPOCH":"2026-04-05T06:49:39.550656","MEAN_MOTION":15.30261755,"ECCENTRICITY":0.00104851,"INCLINATION":97.5115,"RA_OF_ASC_NODE":159.8696,"ARG_OF_PERICENTER":4.998,"MEAN_ANOMALY":355.1363,"EPHEMERIS_TYPE":0,"CLASSIFICATION_TYPE":"U","NORAD_CAT_ID":57193,"ELEMENT_SET_NO":999,"REV_AT_EPOCH":15329,"BSTAR":0.00058747915,"MEAN_MOTION_DOT":0.00017168,"MEAN_MOTION_DDOT":0},{"OBJECT_NAME":"SITRO-AIS 7 (FARTUSHNIY)","OBJECT_ID":"2023-091AE","EPOCH":"2026-04-05T06:49:12.398592","MEAN_MOTION":15.24572247,"ECCENTRICITY":0.00121559,"INCLINATION":97.5127,"RA_OF_ASC_NODE":157.902,"ARG_OF_PERICENTER":12.2878,"MEAN_ANOMALY":347.8653,"EPHEMERIS_TYPE":0,"CLASSIFICATION_TYPE":"U","NORAD_CAT_ID":57194,"ELEMENT_SET_NO":999,"REV_AT_EPOCH":15316,"BSTAR":0.00034936947,"MEAN_MOTION_DOT":8.554e-5,"MEAN_MOTION_DDOT":0},{"OBJECT_NAME":"SITRO-AIS 10 (BURDAEV)","OBJECT_ID":"2023-091AK","EPOCH":"2026-04-05T06:41:27.138048","MEAN_MOTION":15.3599017,"ECCENTRICITY":0.00059698,"INCLINATION":97.5131,"RA_OF_ASC_NODE":164.2142,"ARG_OF_PERICENTER":342.9572,"MEAN_ANOMALY":17.147,"EPHEMERIS_TYPE":0,"CLASSIFICATION_TYPE":"U","NORAD_CAT_ID":57199,"ELEMENT_SET_NO":999,"REV_AT_EPOCH":15356,"BSTAR":0.00074969673,"MEAN_MOTION_DOT":0.0002626,"MEAN_MOTION_DDOT":0},{"OBJECT_NAME":"SITRO-AIS 9 (SHCHUKIN)","OBJECT_ID":"2023-091AM","EPOCH":"2026-04-05T06:48:38.019168","MEAN_MOTION":15.35571001,"ECCENTRICITY":0.00062095,"INCLINATION":97.5129,"RA_OF_ASC_NODE":164.002,"ARG_OF_PERICENTER":343.1516,"MEAN_ANOMALY":16.952,"EPHEMERIS_TYPE":0,"CLASSIFICATION_TYPE":"U","NORAD_CAT_ID":57201,"ELEMENT_SET_NO":999,"REV_AT_EPOCH":15355,"BSTAR":0.00070768086,"MEAN_MOTION_DOT":0.00024449,"MEAN_MOTION_DDOT":0},{"OBJECT_NAME":"SITRO-AIS 12 (SMIRENNIY)","OBJECT_ID":"2023-091AQ","EPOCH":"2026-04-05T06:54:18.347904","MEAN_MOTION":15.35837518,"ECCENTRICITY":0.00057444,"INCLINATION":97.514,"RA_OF_ASC_NODE":164.4292,"ARG_OF_PERICENTER":336.731,"MEAN_ANOMALY":23.3673,"EPHEMERIS_TYPE":0,"CLASSIFICATION_TYPE":"U","NORAD_CAT_ID":57204,"ELEMENT_SET_NO":999,"REV_AT_EPOCH":15357,"BSTAR":0.00072438369,"MEAN_MOTION_DOT":0.00025243,"MEAN_MOTION_DDOT":0},{"OBJECT_NAME":"SITRO-AIS 11 (SHEFFER)","OBJECT_ID":"2023-091AU","EPOCH":"2026-04-05T04:33:00.202752","MEAN_MOTION":15.36206833,"ECCENTRICITY":0.00056276,"INCLINATION":97.5139,"RA_OF_ASC_NODE":164.5332,"ARG_OF_PERICENTER":336.5291,"MEAN_ANOMALY":23.5695,"EPHEMERIS_TYPE":0,"CLASSIFICATION_TYPE":"U","NORAD_CAT_ID":57208,"ELEMENT_SET_NO":999,"REV_AT_EPOCH":15357,"BSTAR":0.00073090587,"MEAN_MOTION_DOT":0.00025775,"MEAN_MOTION_DDOT":0},{"OBJECT_NAME":"SITRO-AIS 25","OBJECT_ID":"2024-039R","EPOCH":"2026-04-05T06:22:17.904000","MEAN_MOTION":14.92906477,"ECCENTRICITY":0.01448661,"INCLINATION":95.3928,"RA_OF_ASC_NODE":184.9983,"ARG_OF_PERICENTER":222.3132,"MEAN_ANOMALY":136.6847,"EPHEMERIS_TYPE":0,"CLASSIFICATION_TYPE":"U","NORAD_CAT_ID":59066,"ELEMENT_SET_NO":999,"REV_AT_EPOCH":11384,"BSTAR":0.00065055089,"MEAN_MOTION_DOT":8.253e-5,"MEAN_MOTION_DDOT":0},{"OBJECT_NAME":"SITRO-AIS 26","OBJECT_ID":"2024-039S","EPOCH":"2026-04-05T06:10:25.397760","MEAN_MOTION":14.92712893,"ECCENTRICITY":0.01451941,"INCLINATION":95.3925,"RA_OF_ASC_NODE":184.9046,"ARG_OF_PERICENTER":222.8645,"MEAN_ANOMALY":136.119,"EPHEMERIS_TYPE":0,"CLASSIFICATION_TYPE":"U","NORAD_CAT_ID":59067,"ELEMENT_SET_NO":999,"REV_AT_EPOCH":11383,"BSTAR":0.00063419175,"MEAN_MOTION_DOT":8.009e-5,"MEAN_MOTION_DDOT":0},{"OBJECT_NAME":"SITRO-AIS 27","OBJECT_ID":"2024-039T","EPOCH":"2026-04-05T05:56:24.921888","MEAN_MOTION":14.93113121,"ECCENTRICITY":0.0144424,"INCLINATION":95.3924,"RA_OF_ASC_NODE":185.1368,"ARG_OF_PERICENTER":221.689,"MEAN_ANOMALY":137.3259,"EPHEMERIS_TYPE":0,"CLASSIFICATION_TYPE":"U","NORAD_CAT_ID":59068,"ELEMENT_SET_NO":999,"REV_AT_EPOCH":11385,"BSTAR":0.00061416004,"MEAN_MOTION_DOT":7.823e-5,"MEAN_MOTION_DDOT":0},{"OBJECT_NAME":"SITRO-AIS 28","OBJECT_ID":"2024-039U","EPOCH":"2026-04-05T07:02:52.458144","MEAN_MOTION":14.93150437,"ECCENTRICITY":0.01443171,"INCLINATION":95.3929,"RA_OF_ASC_NODE":185.2122,"ARG_OF_PERICENTER":221.414,"MEAN_ANOMALY":137.6076,"EPHEMERIS_TYPE":0,"CLASSIFICATION_TYPE":"U","NORAD_CAT_ID":59071,"ELEMENT_SET_NO":999,"REV_AT_EPOCH":11386,"BSTAR":0.00052243564,"MEAN_MOTION_DOT":6.653e-5,"MEAN_MOTION_DDOT":0}]
